     3.00           N: GNSS NAV DATA    R: GLONASS          RINEX VERSION / TYPE
NetR9 4.85          Receiver Operator   20160105 000000 UTC PGM / RUN BY / DATE
    17                                                      LEAP SECONDS
                                                            END OF HEADER
R09 2016 01 05 14 45 00  .234898179770D-04  .909494701773D-12  .522000000000D+05
     -.814568164062D+04  .301924514771D+01  .931322574615D-09  .000000000000D+00
     -.985145996094D+04 -.131217956543D+00 -.279396772385D-08 -.200000000000D+01
     -.221094731445D+05 -.104480075836D+01  .931322574615D-09  .000000000000D+00
R14 2016 01 05 14 45 00  .264830887318D-03  .454747350886D-11  .522000000000D+05
      .231784936523D+05 -.140819263458D+01 -.931322574615D-09  .000000000000D+00
      .329631250000D+04 -.134960174561D+00  .931322574615D-09 -.700000000000D+01
      .101964013672D+05  .323364830017D+01 -.931322574615D-09  .000000000000D+00
R06 2016 01 05 14 45 00  .813761726022D-04  .000000000000D+00  .522000000000D+05
     -.121414492188D+05  .258954048157D+00  .931322574615D-09  .000000000000D+00
     -.219299570312D+05  .619688034058D+00 -.186264514923D-08 -.400000000000D+01
      .478921875000D+04  .347700405121D+01 -.186264514923D-08  .000000000000D+00
R20 2016 01 05 14 45 00 -.213043764234D-03 -.909494701773D-12  .526500000000D+05
      .122686083984D+04  .943914413452D+00  .000000000000D+00  .000000000000D+00
     -.190980810547D+05 -.211568927765D+01 -.931322574615D-09  .200000000000D+01
      .168997861328D+05 -.245609664917D+01 -.279396772385D-08  .000000000000D+00
R19 2016 01 05 15 15 00 -.144969671965D-03 -.909494701773D-12  .540000000000D+05
      .110351093750D+05 -.468836784363D+00  .000000000000D+00  .000000000000D+00
     -.222042832031D+05  .700974464417D+00 -.372529029846D-08  .300000000000D+01
     -.597411132812D+04 -.347001075745D+01 -.931322574615D-09  .000000000000D+00
R18 2016 01 05 15 15 00  .834306702018D-04  .909494701773D-12  .540000000000D+05
      .128753188477D+05 -.101283073425D+01  .000000000000D+00  .000000000000D+00
     -.791153857422D+04  .263068103790D+01 -.279396772385D-08 -.300000000000D+01
     -.205532446289D+05 -.164016723633D+01  .931322574615D-09  .000000000000D+00
R16 2016 01 05 15 15 00  .274833291769D-04  .181898940355D-11  .540000000000D+05
      .152377543945D+05  .227440357208D+01  .000000000000D+00  .000000000000D+00
     -.112143427734D+05 -.580775260925D+00 -.279396772385D-08 -.100000000000D+01
     -.171796821289D+05  .239270401001D+01  .000000000000D+00  .000000000000D+00
R15 2016 01 05 15 15 00  .609550625086D-04  .000000000000D+00  .540000000000D+05
      .250752299805D+05 -.220409393311D+00 -.931322574615D-09  .000000000000D+00
     -.415927490234D+04 -.187848091125D+00  .000000000000D+00  .000000000000D+00
      .133300585938D+04  .360506916046D+01 -.931322574615D-09  .000000000000D+00
R09 2016 01 05 15 15 00  .234916806221D-04  .909494701773D-12  .540000000000D+05
     -.258888232422D+04  .310323429108D+01  .000000000000D+00  .000000000000D+00
     -.105120756836D+05 -.602660179138D+00 -.372529029846D-08 -.200000000000D+01
     -.231139101562D+05 -.637292861938D-01  .931322574615D-09  .000000000000D+00
R20 2016 01 05 15 15 00 -.213046558201D-03 -.909494701773D-12  .540000000000D+05
      .241091748047D+04  .388199806213D+00  .000000000000D+00  .000000000000D+00
     -.224710795898D+05 -.158884143829D+01 -.186264514923D-08  .200000000000D+01
      .118842822266D+05 -.308057785034D+01 -.279396772385D-08  .000000000000D+00
R19 2016 01 05 15 45 00 -.144971534610D-03 -.909494701773D-12  .558000000000D+05
      .100997329102D+05 -.527714729309D+00 -.931322574615D-09  .000000000000D+00
     -.201657597656D+05  .155516433716D+01 -.372529029846D-08  .300000000000D+01
     -.119083129883D+05 -.308070945740D+01  .000000000000D+00  .000000000000D+00
R16 2016 01 05 15 45 00  .274870544672D-04  .181898940355D-11  .558000000000D+05
      .186852592773D+05  .153215885162D+01 -.931322574615D-09  .000000000000D+00
     -.123930986328D+05 -.689814567566D+00 -.186264514923D-08 -.100000000000D+01
     -.122677626953D+05  .302972793579D+01  .000000000000D+00  .000000000000D+00
R18 2016 01 05 15 45 00  .834334641695D-04  .909494701773D-12  .558000000000D+05
      .113380253906D+05 -.668906211853D+00  .000000000000D+00  .000000000000D+00
     -.277134619141D+04  .303669452667D+01 -.186264514923D-08 -.300000000000D+01
     -.226729038086D+05 -.699542045593D+00  .186264514923D-08  .000000000000D+00
R09 2016 01 05 15 45 00  .234935432673D-04  .000000000000D+00  .558000000000D+05
      .284226123047D+04  .288261699677D+01  .000000000000D+00  .000000000000D+00
     -.119876875000D+05 -.101878643036D+01 -.372529029846D-08 -.200000000000D+01
     -.223348471680D+05  .924059867859D+00  .931322574615D-09  .000000000000D+00
R20 2016 01 05 15 45 00 -.213049352169D-03 -.909494701773D-12  .558000000000D+05
      .271205957031D+04 -.223541259766D-01 -.931322574615D-09  .000000000000D+00
     -.246831450195D+05 -.838606834412D+00 -.279396772385D-08  .200000000000D+01
      .595260498047D+04 -.346750354767D+01 -.279396772385D-08  .000000000000D+00
R15 2016 01 05 15 45 00  .609550625086D-04  .000000000000D+00  .558000000000D+05
      .238967641602D+05 -.106830310822D+01 -.931322574615D-09  .000000000000D+00
     -.424684033203D+04  .128241539001D+00  .000000000000D+00  .000000000000D+00
      .768589257812D+04  .340759086609D+01 -.931322574615D-09  .000000000000D+00
R19 2016 01 05 16 15 00 -.144973397255D-03 -.909494701773D-12  .576000000000D+05
      .928198828125D+04 -.343662261963D+00 -.931322574615D-09  .000000000000D+00
     -.166725488281D+05  .229844284058D+01 -.279396772385D-08  .300000000000D+01
     -.169213212891D+05 -.245312309265D+01  .000000000000D+00  .000000000000D+00
R16 2016 01 05 16 15 00  .274898484349D-04  .181898940355D-11  .576000000000D+05
      .207004267578D+05  .701786994934D+00 -.931322574615D-09  .000000000000D+00
     -.135473007812D+05 -.549724578857D+00 -.931322574615D-09 -.100000000000D+01
     -.641276708984D+04  .343383693695D+01  .000000000000D+00  .000000000000D+00
R09 2016 01 05 16 15 00  .234954059124D-04  .000000000000D+00  .576000000000D+05
      .762918652344D+04  .239775276184D+01 -.931322574615D-09  .000000000000D+00
     -.140856503906D+05 -.127900886536D+01 -.279396772385D-08 -.200000000000D+01
     -.198291411133D+05  .184226799011D+01  .000000000000D+00  .000000000000D+00
R20 2016 01 05 16 15 00 -.213052146137D-03 -.909494701773D-12  .576000000000D+05
      .246125878906D+04 -.216254234314D+00 -.931322574615D-09  .000000000000D+00
     -.254113208008D+05  .421419143677D-01 -.279396772385D-08  .200000000000D+01
     -.437944335938D+03 -.358713817596D+01 -.186264514923D-08  .000000000000D+00
R15 2016 01 05 16 15 00  .609550625086D-04  .000000000000D+00  .576000000000D+05
      .213350649414D+05 -.174098682404D+01 -.931322574615D-09  .000000000000D+00
     -.358120947266D+04  .637068748474D+00  .186264514923D-08  .000000000000D+00
      .134411225586D+05  .294546127319D+01 -.931322574615D-09  .000000000000D+00
R18 2016 01 05 16 15 00  .834362581372D-04  .909494701773D-12  .576000000000D+05
      .105330595703D+05 -.215930938721D+00  .000000000000D+00  .000000000000D+00
      .284609521484D+04  .315340042114D+01 -.931322574615D-09 -.300000000000D+01
     -.230383959961D+05  .296260833740D+00  .186264514923D-08  .000000000000D+00
R10 2016 01 05 16 15 00  .453554093838D-05  .000000000000D+00  .582000000000D+05
     -.944292724609D+04  .282235145569D+01  .000000000000D+00  .000000000000D+00
     -.681406005859D+04 -.130659580231D+01 -.279396772385D-08 -.700000000000D+01
     -.226990668945D+05 -.788852691650D+00  .931322574615D-09  .000000000000D+00
R21 2016 01 05 16 15 00  .454699620605D-04  .181898940355D-11  .592200000000D+05
     -.567554589844D+04  .118932723999D-01  .000000000000D+00  .000000000000D+00
     -.196494462891D+05 -.209116840363D+01 -.931322574615D-09  .400000000000D+01
      .152263159180D+05 -.269739818573D+01 -.279396772385D-08  .000000000000D+00
R09 2016 01 05 16 45 00  .234963372350D-04  .000000000000D+00  .594000000000D+05
      .113629379883D+05  .172839546204D+01 -.186264514923D-08  .000000000000D+00
     -.164525732422D+05 -.130796813965D+01 -.186264514923D-08 -.200000000000D+01
     -.157875454102D+05  .261939239502D+01  .000000000000D+00  .000000000000D+00
R19 2016 01 05 16 45 00 -.144975259900D-03 -.909494701773D-12  .594000000000D+05
      .897665917969D+04  .294055938721D-01 -.931322574615D-09  .000000000000D+00
     -.120198330078D+05  .282868862152D+01 -.186264514923D-08  .300000000000D+01
     -.206254531250D+05 -.163586139679D+01  .931322574615D-09  .000000000000D+00
R16 2016 01 05 16 45 00  .274935737252D-04  .909494701773D-12  .594000000000D+05
      .212281826172D+05 -.101356506348D+00 -.931322574615D-09  .000000000000D+00
     -.142218046875D+05 -.160645484924D+00  .000000000000D+00 -.100000000000D+01
     -.647158203125D+02  .357400894165D+01 -.931322574615D-09  .000000000000D+00
R20 2016 01 05 16 45 00 -.213054940104D-03 -.909494701773D-12  .594000000000D+05
      .208310400391D+04 -.162434577942D+00 -.186264514923D-08  .000000000000D+00
     -.245216308594D+05  .939119338989D+00 -.279396772385D-08  .200000000000D+01
     -.679471533203D+04 -.343019008636D+01 -.931322574615D-09  .000000000000D+00
R10 2016 01 05 16 45 00  .453740358353D-05  .909494701773D-12  .594000000000D+05
     -.447479833984D+04  .265003967285D+01 -.931322574615D-09  .000000000000D+00
     -.959283007812D+04 -.175784587860D+01 -.279396772385D-08 -.700000000000D+01
     -.232241000977D+05  .209048271179D+00  .931322574615D-09  .000000000000D+00
